$$SOE
2460154.500000000, A.D. 2023-Jul-29 00:00:00.0000, -6.674623079274879E+08, -2.546359759225436E+08, 1.815255837031041E+07,
2460161.500000000, A.D. 2023-Aug-05 00:00:00.0000, -6.649468240525672E+08, -2.614950368230905E+08, 1.828259023194557E+07,
2460168.500000000, A.D. 2023-Aug-12 00:00:00.0000, -6.623430019923579E+08, -2.683193515049227E+08, 1.841019334879844E+07,
2460175.500000000, A.D. 2023-Aug-19 00:00:00.0000, -6.596512324817312E+08, -2.751080321225177E+08, 1.853535205464673E+07,
2460182.500000000, A.D. 2023-Aug-26 00:00:00.0000, -6.568719098072478E+08, -2.818601937132801E+08, 1.865805078976355E+07,
2460189.500000000, A.D. 2023-Sep-02 00:00:00.0000, -6.540054318658524E+08, -2.885749540643246E+08, 1.877827410005616E+07,
2460196.500000000, A.D. 2023-Sep-09 00:00:00.0000, -6.510522002131643E+08, -2.952514336932002E+08, 1.889600662494312E+07,
2460203.500000000, A.D. 2023-Sep-16 00:00:00.0000, -6.480126199329094E+08, -3.018887560005394E+08, 1.901123305383901E+07,
2460210.500000000, A.D. 2023-Sep-23 00:00:00.0000, -6.448870989110266E+08, -3.084860473078043E+08, 1.912393803655945E+07,
2460217.500000000, A.D. 2023-Sep-30 00:00:00.0000, -6.416760468538854E+08, -3.150424355893557E+08, 1.923410617619845E+07,
2460224.500000000, A.D. 2023-Oct-07 00:00:00.0000, -6.383798764041765E+08, -3.215570484417148E+08, 1.934172227612177E+07,
2460231.500000000, A.D. 2023-Oct-14 00:00:00.0000, -6.349990053146883E+08, -3.280290136034282E+08, 1.944677147508428E+07,
2460238.500000000, A.D. 2023-Oct-21 00:00:00.0000, -6.315338564516820E+08, -3.344574604228544E+08, 1.954923910551819E+07,
2460245.500000000, A.D. 2023-Oct-28 00:00:00.0000, -6.279848570521874E+08, -3.408415200135366E+08, 1.964911059059271E+07,
2460252.500000000, A.D. 2023-Nov-04 00:00:00.0000, -6.243524384850379E+08, -3.471803248674703E+08, 1.974637143199135E+07,
2460259.500000000, A.D. 2023-Nov-11 00:00:00.0000, -6.206370363379697E+08, -3.534730085262461E+08, 1.984100722334413E+07,
2460266.500000000, A.D. 2023-Nov-18 00:00:00.0000, -6.168390906113633E+08, -3.597187053745146E+08, 1.993300366417018E+07,
2460273.500000000, A.D. 2023-Nov-25 00:00:00.0000, -6.129590459459126E+08, -3.659165505333058E+08, 2.002234656972221E+07,
2460280.500000000, A.D. 2023-Dec-02 00:00:00.0000, -6.089973518561522E+08, -3.720656798644406E+08, 2.010902187341641E+07,
2460287.500000000, A.D. 2023-Dec-09 00:00:00.0000, -6.049544628921132E+08, -3.781652301449835E+08, 2.019301561001553E+07,
2460294.500000000, A.D. 2023-Dec-16 00:00:00.0000, -6.008308384416552E+08, -3.842143393991823E+08, 2.027431385426299E+07,
2460301.500000000, A.D. 2023-Dec-23 00:00:00.0000, -5.966269418250943E+08, -3.902121467004117E+08, 2.035290263915275E+07,
2460308.500000000, A.D. 2023-Dec-30 00:00:00.0000, -5.923432400223010E+08, -3.961577903937788E+08, 2.042876806239845E+07,
2460315.500000000, A.D. 2024-Jan-06 00:00:00.0000, -5.879802058046478E+08, -4.020504071001263E+08, 2.050189655056381E+07,
2460322.500000000, A.D. 2024-Jan-13 00:00:00.0000, -5.835383190992739E+08, -4.078891333084724E+08, 2.057227484195502E+07,
2460329.500000000, A.D. 2024-Jan-20 00:00:00.0000, -5.790180663622701E+08, -4.136731064721304E+08, 2.063988982790343E+07,
2460336.500000000, A.D. 2024-Jan-27 00:00:00.0000, -5.744199399892869E+08, -4.194014649559898E+08, 2.070472849157897E+07,
2460343.500000000, A.D. 2024-Feb-03 00:00:00.0000, -5.697444381915401E+08, -4.250733477835059E+08, 2.076677790584928E+07,
2460350.500000000, A.D. 2024-Feb-10 00:00:00.0000, -5.649920650596346E+08, -4.306878944747348E+08, 2.082602524071294E+07,
2460357.500000000, A.D. 2024-Feb-17 00:00:00.0000, -5.601633306765485E+08, -4.362442449678395E+08, 2.088245776804349E+07,
2460364.500000000, A.D. 2024-Feb-24 00:00:00.0000, -5.552587512440817E+08, -4.417415396095798E+08, 2.093606286141339E+07,
2460371.500000000, A.D. 2024-Mar-02 00:00:00.0000, -5.502788491937273E+08, -4.471789192474987E+08, 2.098682798555630E+07,
2460378.500000000, A.D. 2024-Mar-09 00:00:00.0000, -5.452241531434455E+08, -4.525555254867350E+08, 2.103474065753570E+07,
2460385.500000000, A.D. 2024-Mar-16 00:00:00.0000, -5.400951973052480E+08, -4.578705009141709E+08, 2.107978835944608E+07,
2460392.500000000, A.D. 2024-Mar-23 00:00:00.0000, -5.348925204472517E+08, -4.631229881807422E+08, 2.112195850275421E+07,
2460399.500000000, A.D. 2024-Mar-30 00:00:00.0000, -5.296166666512268E+08, -4.683121279685772E+08, 2.116123864762899E+07,
2460406.500000000, A.D. 2024-Apr-06 00:00:00.0000, -5.242681876095428E+08, -4.734370592107037E+08, 2.119761667853919E+07,
2460413.500000000, A.D. 2024-Apr-13 00:00:00.0000, -5.188476429106312E+08, -4.784969207271125E+08, 2.123108067876703E+07,
2460420.500000000, A.D. 2024-Apr-20 00:00:00.0000, -5.133555992652981E+08, -4.834908516004260E+08, 2.126161880995259E+07,
2460427.500000000, A.D. 2024-Apr-27 00:00:00.0000, -5.077926301908051E+08, -4.884179908523241E+08, 2.128921928997663E+07,
2460434.500000000, A.D. 2024-May-04 00:00:00.0000, -5.021593160646164E+08, -4.932774771239604E+08, 2.131387040368029E+07,
2460441.500000000, A.D. 2024-May-11 00:00:00.0000, -4.964562443093531E+08, -4.980684484620711E+08, 2.133556051632604E+07,
2460448.500000000, A.D. 2024-May-18 00:00:00.0000, -4.906840096269502E+08, -5.027900421890416E+08, 2.135427808417597E+07,
2460455.500000000, A.D. 2024-May-25 00:00:00.0000, -4.848432142573465E+08, -5.074413948639002E+08, 2.137001165952519E+07,
2460462.500000000, A.D. 2024-Jun-01 00:00:00.0000, -4.789344682019303E+08, -5.120216423914952E+08, 2.138274988023207E+07,
2460469.500000000, A.D. 2024-Jun-08 00:00:00.0000, -4.729583891654860E+08, -5.165299203026502E+08, 2.139248141953412E+07,
2460476.500000000, A.D. 2024-Jun-15 00:00:00.0000, -4.669156018172311E+08, -5.209653636600540E+08, 2.139919490432796E+07,
2460483.500000000, A.D. 2024-Jun-22 00:00:00.0000, -4.608067373762008E+08, -5.253271054145234E+08, 2.140287899042675E+07,
2460490.500000000, A.D. 2024-Jun-29 00:00:00.0000, -4.546324356425265E+08, -5.296142750323188E+08, 2.140352264083683E+07,
2460497.500000000, A.D. 2024-Jul-06 00:00:00.0000, -4.483933468296754E+08, -5.338259998648657E+08, 2.140111516271326E+07,
2460504.500000000, A.D. 2024-Jul-13 00:00:00.0000, -4.420901312487665E+08, -5.379614064370332E+08, 2.139564605518028E+07,
2460511.500000000, A.D. 2024-Jul-20 00:00:00.0000, -4.357234588308572E+08, -5.420196205052521E+08, 2.138710494414258E+07,
2460518.500000000, A.D. 2024-Jul-27 00:00:00.0000, -4.292940091432156E+08, -5.459997668448434E+08, 2.137548158585909E+07,
2460525.500000000, A.D. 2024-Aug-03 00:00:00.0000, -4.228024716266201E+08, -5.499009691415097E+08, 2.136076588352603E+07,
2460532.500000000, A.D. 2024-Aug-10 00:00:00.0000, -4.162495458879517E+08, -5.537223499914765E+08, 2.134294790115136E+07,
2460539.500000000, A.D. 2024-Aug-17 00:00:00.0000, -4.096359420008947E+08, -5.574630309885340E+08, 2.132201787196738E+07,
2460546.500000000, A.D. 2024-Aug-24 00:00:00.0000, -4.029623807871168E+08, -5.611221329200881E+08, 2.129796619678757E+07,
2460553.500000000, A.D. 2024-Aug-31 00:00:00.0000, -3.962295939625261E+08, -5.646987761334493E+08, 2.127078341644394E+07,
2460560.500000000, A.D. 2024-Sep-07 00:00:00.0000, -3.894383237832845E+08, -5.681920809456308E+08, 2.124046013486621E+07,
2460567.500000000, A.D. 2024-Sep-14 00:00:00.0000, -3.825893221063778E+08, -5.716011671003337E+08, 2.120698696613178E+07,
2460574.500000000, A.D. 2024-Sep-21 00:00:00.0000, -3.756833508933830E+08, -5.749251518590561E+08, 2.117035472505960E+07,
2460581.500000000, A.D. 2024-Sep-28 00:00:00.0000, -3.687211846445161E+08, -5.781631499538224E+08, 2.113055464206570E+07,
2460588.500000000, A.D. 2024-Oct-05 00:00:00.0000, -3.617036110931109E+08, -5.813142754002693E+08, 2.108757826566720E+07,
2460595.500000000, A.D. 2024-Oct-12 00:00:00.0000, -3.546314305213429E+08, -5.843776421914331E+08, 2.104141732918057E+07,
2460602.500000000, A.D. 2024-Oct-19 00:00:00.0000, -3.475054554483218E+08, -5.873523641432503E+08, 2.099206372005558E+07,
2460609.500000000, A.D. 2024-Oct-26 00:00:00.0000, -3.403265107230485E+08, -5.902375546932373E+08, 2.093950948931405E+07,
2460616.500000000, A.D. 2024-Nov-02 00:00:00.0000, -3.330954337649397E+08, -5.930323268007604E+08, 2.088374686537510E+07,
2460623.500000000, A.D. 2024-Nov-09 00:00:00.0000, -3.258130748553144E+08, -5.957357929281975E+08, 2.082476826513496E+07,
2460630.500000000, A.D. 2024-Nov-16 00:00:00.0000, -3.184802974539192E+08, -5.983470651027164E+08, 2.076256630000603E+07,
2460637.500000000, A.D. 2024-Nov-23 00:00:00.0000, -3.110979784935378E+08, -6.008652551085526E+08, 2.069713376861608E+07,
2460644.500000000, A.D. 2024-Nov-30 00:00:00.0000, -3.036670084443687E+08, -6.032894748524230E+08, 2.062846361367637E+07,
2460651.500000000, A.D. 2024-Dec-07 00:00:00.0000, -2.961882907287294E+08, -6.056188364814616E+08, 2.055654883904418E+07,
2460658.500000000, A.D. 2024-Dec-14 00:00:00.0000, -2.886627411746792E+08, -6.078524510296412E+08, 2.048138255029908E+07,
2460665.500000000, A.D. 2024-Dec-21 00:00:00.0000, -2.810912898269269E+08, -6.099894268333333E+08, 2.040295823023069E+07,
2460672.500000000, A.D. 2024-Dec-28 00:00:00.0000, -2.734748831422698E+08, -6.120288706835725E+08, 2.032126982597199E+07,
2460679.500000000, A.D. 2025-Jan-04 00:00:00.0000, -2.658144839723445E+08, -6.139698893394337E+08, 2.023631160396513E+07,
2460686.500000000, A.D. 2025-Jan-11 00:00:00.0000, -2.581110711550764E+08, -6.158115897430862E+08, 2.014807807572520E+07,
2460693.500000000, A.D. 2025-Jan-18 00:00:00.0000, -2.503656396317265E+08, -6.175530788555013E+08, 2.005656400369111E+07,
2460700.500000000, A.D. 2025-Jan-25 00:00:00.0000, -2.425792008458728E+08, -6.191934635875411E+08, 1.996176442630869E+07,
2460707.500000000, A.D. 2025-Feb-01 00:00:00.0000, -2.347527832345881E+08, -6.207318508568509E+08, 1.986367468275791E+07,
2460714.500000000, A.D. 2025-Feb-08 00:00:00.0000, -2.268874327531895E+08, -6.221673477513043E+08, 1.976229043381202E+07,
$$EOE